{
  "type": "FeatureCollection",
  "features": [
    {
      "type": "Feature",
      "properties": {
        "norad_id": 36744,
        "name": "COMS 1",
        "group": "weather",
        "lat": -2.687752850954589,
        "lon": -63.57373221042334,
        "alt_km": 35783.62456604007,
        "timestamp": "2025-12-02T06:27:52.663698+00:00",
        "meta_object_name": "COMS 1",
        "meta_object_id": "2010-032A",
        "meta_epoch": "2025-12-01T12:42:46.444608",
        "meta_mean_motion": 1.00270535,
        "meta_eccentricity": 0.00010192,
        "meta_inclination": 4.3122,
        "meta_ra_of_asc_node": 78.1218,
        "meta_arg_of_pericenter": 177.7332,
        "meta_mean_anomaly": 133.6625,
        "meta_ephemeris_type": 0,
        "meta_classification_type": "U",
        "meta_norad_cat_id": 36744,
        "meta_element_set_no": 999,
        "meta_rev_at_epoch": 4910,
        "meta_bstar": 0,
        "meta_mean_motion_dot": -3.23e-06,
        "meta_mean_motion_ddot": 0,
        "tle_line1": "1 36744U 10032A   25335.52970422 -.00000323  00000+0  00000+0 0  9996",
        "tle_line2": "2 36744   4.3122  78.1218 0001019 177.7332 133.6625  1.00270535 49109"
      },
      "geometry": {
        "type": "Point",
        "coordinates": [
          -63.57373221042334,
          -2.687752850954589
        ]
      }
    },
    {
      "type": "Feature",
      "properties": {
        "norad_id": 37214,
        "name": "FENGYUN 3B",
        "group": "weather",
        "lat": 15.958713263561819,
        "lon": 13.577452031140764,
        "alt_km": 827.6934124680911,
        "timestamp": "2025-12-02T06:27:52.663710+00:00",
        "meta_object_name": "FENGYUN 3B",
        "meta_object_id": "2010-059A",
        "meta_epoch": "2025-12-01T21:01:03.677664",
        "meta_mean_motion": 14.1478481,
        "meta_eccentricity": 0.0022509,
        "meta_inclination": 98.9923,
        "meta_ra_of_asc_node": 15.7764,
        "meta_arg_of_pericenter": 28.3559,
        "meta_mean_anomaly": 144.272,
        "meta_ephemeris_type": 0,
        "meta_classification_type": "U",
        "meta_norad_cat_id": 37214,
        "meta_element_set_no": 999,
        "meta_rev_at_epoch": 77952,
        "meta_bstar": 8.0404e-05,
        "meta_mean_motion_dot": 1.1e-06,
        "meta_mean_motion_ddot": 0,
        "tle_line1": "1 37214U 10059A   25335.87573701  .00000110  00000+0  80404-4 0  9999",
        "tle_line2": "2 37214  98.9923  15.7764 0022509  28.3559 144.2720 14.14784810779527"
      },
      "geometry": {
        "type": "Point",
        "coordinates": [
          13.577452031140764,
          15.958713263561819
        ]
      }
    },
    {
      "type": "Feature",
      "properties": {
        "norad_id": 37849,
        "name": "SUOMI NPP",
        "group": "weather",
        "lat": 38.80956276401742,
        "lon": -93.43097830576588,
        "alt_km": 824.248799273465,
        "timestamp": "2025-12-02T06:27:52.663721+00:00",
        "meta_object_name": "SUOMI NPP",
        "meta_object_id": "2011-061A",
        "meta_epoch": "2025-12-01T20:07:47.072928",
        "meta_mean_motion": 14.19509058,
        "meta_eccentricity": 0.0001835,
        "meta_inclination": 98.7756,
        "meta_ra_of_asc_node": 273.2793,
        "meta_arg_of_pericenter": 139.8698,
        "meta_mean_anomaly": 220.2614,
        "meta_ephemeris_type": 0,
        "meta_classification_type": "U",
        "meta_norad_cat_id": 37849,
        "meta_element_set_no": 999,
        "meta_rev_at_epoch": 73044,
        "meta_bstar": 7.4992e-05,
        "meta_mean_motion_dot": 1.14e-06,
        "meta_mean_motion_ddot": 0,
        "tle_line1": "1 37849U 11061A   25335.83873927  .00000114  00000+0  74992-4 0  9995",
        "tle_line2": "2 37849  98.7756 273.2793 0001835 139.8698 220.2614 14.19509058730446"
      },
      "geometry": {
        "type": "Point",
        "coordinates": [
          -93.43097830576588,
          38.80956276401742
        ]
      }
    },
    {
      "type": "Feature",
      "properties": {
        "norad_id": 38552,
        "name": "METEOSAT-10 (MSG-3)",
        "group": "weather",
        "lat": 4.013506113339115,
        "lon": 168.45980643477384,
        "alt_km": 35786.36345991083,
        "timestamp": "2025-12-02T06:27:52.663734+00:00",
        "meta_object_name": "METEOSAT-10 (MSG-3)",
        "meta_object_id": "2012-035B",
        "meta_epoch": "2025-12-01T01:49:45.412320",
        "meta_mean_motion": 1.00272105,
        "meta_eccentricity": 6.165e-05,
        "meta_inclination": 4.1991,
        "meta_ra_of_asc_node": 61.7388,
        "meta_arg_of_pericenter": 218.2522,
        "meta_mean_anomaly": 177.7466,
        "meta_ephemeris_type": 0,
        "meta_classification_type": "U",
        "meta_norad_cat_id": 38552,
        "meta_element_set_no": 999,
        "meta_rev_at_epoch": 4887,
        "meta_bstar": 0,
        "meta_mean_motion_dot": 1.5e-07,
        "meta_mean_motion_ddot": 0,
        "tle_line1": "1 38552U 12035B   25335.07622005  .00000015  00000+0  00000+0 0  9998",
        "tle_line2": "2 38552   4.1991  61.7388 0000616 218.2522 177.7466  1.00272105 48870"
      },
      "geometry": {
        "type": "Point",
        "coordinates": [
          168.45980643477384,
          4.013506113339115
        ]
      }
    },
    {
      "type": "Feature",
      "properties": {
        "norad_id": 38771,
        "name": "METOP-B",
        "group": "weather",
        "lat": -0.6181492601418808,
        "lon": -153.68954279437565,
        "alt_km": 821.9236417140592,
        "timestamp": "2025-12-02T06:27:52.663746+00:00",
        "meta_object_name": "METOP-B",
        "meta_object_id": "2012-049A",
        "meta_epoch": "2025-12-01T19:28:53.652576",
        "meta_mean_motion": 14.21401583,
        "meta_eccentricity": 0.0002406,
        "meta_inclination": 98.6815,
        "meta_ra_of_asc_node": 25.955,
        "meta_arg_of_pericenter": 169.1284,
        "meta_mean_anomaly": 190.9946,
        "meta_ephemeris_type": 0,
        "meta_classification_type": "U",
        "meta_norad_cat_id": 38771,
        "meta_element_set_no": 999,
        "meta_rev_at_epoch": 68522,
        "meta_bstar": 9.2513e-05,
        "meta_mean_motion_dot": 1.59e-06,
        "meta_mean_motion_ddot": 0,
        "tle_line1": "1 38771U 12049A   25335.81173209  .00000159  00000+0  92513-4 0  9999",
        "tle_line2": "2 38771  98.6815  25.9550 0002406 169.1284 190.9946 14.21401583685224"
      },
      "geometry": {
        "type": "Point",
        "coordinates": [
          -153.68954279437565,
          -0.6181492601418808
        ]
      }
    },
    {
      "type": "Feature",
      "properties": {
        "norad_id": 39216,
        "name": "INSAT-3D",
        "group": "weather",
        "lat": -0.7718164933107488,
        "lon": -62.165207846806304,
        "alt_km": 35781.98331302088,
        "timestamp": "2025-12-02T06:27:52.663758+00:00",
        "meta_object_name": "INSAT-3D",
        "meta_object_id": "2013-038B",
        "meta_epoch": "2025-12-01T19:33:56.227104",
        "meta_mean_motion": 1.00274703,
        "meta_eccentricity": 0.0001693,
        "meta_inclination": 1.414,
        "meta_ra_of_asc_node": 85.1176,
        "meta_arg_of_pericenter": 151.3454,
        "meta_mean_anomaly": 257.4514,
        "meta_ephemeris_type": 0,
        "meta_classification_type": "U",
        "meta_norad_cat_id": 39216,
        "meta_element_set_no": 999,
        "meta_rev_at_epoch": 4510,
        "meta_bstar": 0,
        "meta_mean_motion_dot": -3.17e-06,
        "meta_mean_motion_ddot": 0,
        "tle_line1": "1 39216U 13038B   25335.81523411 -.00000317  00000+0  00000+0 0  9999",
        "tle_line2": "2 39216   1.4140  85.1176 0001693 151.3454 257.4514  1.00274703 45105"
      },
      "geometry": {
        "type": "Point",
        "coordinates": [
          -62.165207846806304,
          -0.7718164933107488
        ]
      }
    },
    {
      "type": "Feature",
      "properties": {
        "norad_id": 39260,
        "name": "FENGYUN 3C",
        "group": "weather",
        "lat": -74.6908944868114,
        "lon": -12.536057433079616,
        "alt_km": 841.5740159347006,
        "timestamp": "2025-12-02T06:27:52.663769+00:00",
        "meta_object_name": "FENGYUN 3C",
        "meta_object_id": "2013-052A",
        "meta_epoch": "2025-12-01T20:39:05.111712",
        "meta_mean_motion": 14.15690705,
        "meta_eccentricity": 0.001377,
        "meta_inclination": 98.4752,
        "meta_ra_of_asc_node": 314.0717,
        "meta_arg_of_pericenter": 228.8507,
        "meta_mean_anomaly": 131.1481,
        "meta_ephemeris_type": 0,
        "meta_classification_type": "U",
        "meta_norad_cat_id": 39260,
        "meta_element_set_no": 999,
        "meta_rev_at_epoch": 63064,
        "meta_bstar": 8.7748e-05,
        "meta_mean_motion_dot": 1.31e-06,
        "meta_mean_motion_ddot": 0,
        "tle_line1": "1 39260U 13052A   25335.86047583  .00000131  00000+0  87748-4 0  9992",
        "tle_line2": "2 39260  98.4752 314.0717 0013770 228.8507 131.1481 14.15690705630646"
      },
      "geometry": {
        "type": "Point",
        "coordinates": [
          -12.536057433079616,
          -74.6908944868114
        ]
      }
    }
  ]
}